OBJECT_NAME,OBJECT_ID,EPOCH,MEAN_MOTION,ECCENTRICITY,INCLINATION,RA_OF_ASC_NODE,ARG_OF_PERICENTER,MEAN_ANOMALY,EPHEMERIS_TYPE,CLASSIFICATION_TYPE,NORAD_CAT_ID,ELEMENT_SET_NO,REV_AT_EPOCH,BSTAR,MEAN_MOTION_DOT,MEAN_MOTION_DDOT
HULIANWANG DIGUI-54,2025-168F,2026-06-05T21:37:40.936800,13.29323208,.0011097,50.0002,5.8281,64.3481,295.8537,0,U,65111,999,4119,.12251E-3,-.67E-6,0
HULIANWANG DIGUI-55,2025-168G,2026-06-05T22:01:26.207616,13.29319629,.0012193,50.0008,5.9258,60.7446,299.4643,0,U,65112,999,4119,.10276E-3,-.76E-6,0
HULIANWANG DIGUI-56,2025-168H,2026-06-05T21:49:30.309312,13.29319053,.0012151,50.0000,5.8612,80.1573,280.0670,0,U,65113,999,4119,.10861E-3,-.74E-6,0
HULIANWANG DIGUI-57,2025-168J,2026-06-05T21:25:41.321568,13.29323146,.000986,50.0028,5.8499,71.8662,288.3283,0,U,65114,999,4120,.10392E-3,-.76E-6,0
QPS-SAR-12 (KUSHINADA-I),2025-169A,2026-06-05T01:25:43.137120,15.00740062,.00061931,42.0114,82.7650,144.4947,215.6292,0,U,65116,999,4559,.4673528E-3,.5845E-4,0
GEESAT-4 01,2025-170A,2026-06-05T18:49:03.979776,14.83940582,.0010123,49.9878,227.3455,4.3756,355.7269,0,U,65119,999,4474,.23513543E-3,.1749E-4,0
GEESAT-4 02,2025-170B,2026-06-05T16:56:18.886560,14.83938500,.00093928,49.9852,227.5194,42.6906,317.4761,0,U,65120,999,4475,.22423702E-3,.1657E-4,0
GEESAT-4 03,2025-170C,2026-06-05T19:20:57.579936,14.84023303,.00203288,49.9922,226.8732,16.8643,343.2967,0,U,65121,999,4474,.24345622E-3,.1825E-4,0
GEESAT-4 04,2025-170D,2026-06-05T22:43:46.113600,14.82096503,.0030363,49.9690,179.7407,269.9038,89.8420,0,U,65122,999,4538,.23383E-3,.1664E-4,0
GEESAT-4 05,2025-170E,2026-06-05T21:55:03.770112,14.82100638,.0008356,49.9934,180.6984,277.8821,82.1168,0,U,65123,999,4537,.22559E-3,.159E-4,0
GEESAT-4 06,2025-170F,2026-06-05T18:17:55.951296,14.83969385,.00186344,49.9837,227.0937,355.3843,4.6921,0,U,65124,999,4473,.22620738E-3,.1676E-4,0
GEESAT-4 07,2025-170G,2026-06-05T19:39:11.490336,14.83988734,.00178912,49.9917,226.9489,8.9109,351.2143,0,U,65125,999,4474,.24179298E-3,.1808E-4,0
GEESAT-4 08,2025-170H,2026-06-05T22:18:10.084032,14.82079808,.0021279,49.9645,179.4419,298.1498,61.7289,0,U,65126,999,4538,.24337E-3,.1735E-4,0
GEESAT-4 09,2025-170J,2026-06-05T19:38:39.275232,14.81346964,.00219224,49.9919,256.4581,346.5795,13.4557,0,U,65127,999,4431,.24540744E-3,.1718E-4,0
GEESAT-4 10,2025-170K,2026-06-05T21:33:34.014240,14.82128368,.0025341,49.9767,179.5947,248.0245,111.7999,0,U,65128,999,4538,.2001E-3,.1389E-4,0
GEESAT-4 11,2025-170L,2026-06-05T19:04:58.628064,14.83952899,.00066638,49.9836,226.5912,45.6417,314.5066,0,U,65129,999,4474,.2333704E-3,.1734E-4,0
KUIPER-00081,2025-171A,2026-06-05T04:09:15.968736,14.79937564,.00007032,51.8997,121.2225,62.8977,297.2057,0,U,65132,999,4599,.46325689E-3,.3313E-4,0
KUIPER-00088,2025-171B,2026-06-05T05:19:19.290720,14.79935719,.0000614,51.8984,138.5098,41.6773,318.4236,0,U,65133,999,4575,.27612E-3,.1885E-4,0
KUIPER-00095,2025-171C,2026-06-05T13:56:35.848608,14.79941508,.00005627,51.8955,116.9727,73.0776,287.0248,0,U,65134,999,4608,.48551782E-3,.3483E-4,0
KUIPER-00096,2025-171D,2026-06-04T06:00:57.551904,14.79934934,.00005764,51.8982,135.3026,59.4979,300.6040,0,U,65135,999,4571,.16286632E-3,.1021E-4,0
KUIPER-00097,2025-171E,2026-06-05T15:59:12.046560,14.79930233,.00010184,51.8998,131.6946,35.6970,324.4060,0,U,65136,999,4587,.24564682E-3,.1652E-4,0
KUIPER-00098,2025-171F,2026-06-05T17:32:32.040960,14.79930880,.0000637,51.8995,133.7760,51.8861,308.2159,0,U,65137,999,4520,.4894025E-4,.152E-5,0
KUIPER-00099,2025-171G,2026-06-05T15:22:12.647424,14.79931298,.00008758,51.9013,124.1749,48.8206,311.2832,0,U,65138,999,4598,.21145142E-3,.1391E-4,0
KUIPER-00100,2025-171H,2026-06-05T14:37:27.782112,14.79934220,.00006023,51.8991,121.7817,65.0552,295.0473,0,U,65139,999,4601,.89584375E-4,.462E-5,0
KUIPER-00102,2025-171J,2026-06-05T14:33:33.981984,14.79938172,.00004426,51.8951,124.2932,76.4800,283.6211,0,U,65140,999,4597,.26660955E-3,.1812E-4,0
KUIPER-00103,2025-171K,2026-06-05T05:11:33.719136,14.79931867,.00004126,51.8984,143.5158,66.0046,294.0959,0,U,65141,999,4567,.16021574E-3,.1E-4,0
KUIPER-00104,2025-171L,2026-06-05T15:14:25.348704,14.79933766,.00004358,51.8984,129.1523,62.5265,297.5742,0,U,65142,999,4591,.12245894E-3,.713E-5,0
KUIPER-00105,2025-171M,2026-06-05T15:51:25.295616,14.79930156,.00006937,51.8986,136.6461,91.5866,268.5176,0,U,65143,999,4581,.38093199E-3,.2684E-4,0
KUIPER-00106,2025-171N,2026-06-06T04:00:03.998880,14.83475472,.000814,51.9016,113.2776,39.4167,185.1783,0,U,65144,999,555,-.58034E-3,-.5046E-4,0
KUIPER-00107,2025-171P,2026-06-05T04:58:07.962240,14.79887478,.00004529,51.8992,121.0941,70.8595,289.2416,0,U,65145,999,4599,.40336125E-3,.2852E-4,0
KUIPER-00108,2025-171Q,2026-06-05T15:10:33.776832,14.79934056,.00007218,51.8979,131.7400,42.1202,317.9816,0,U,65146,999,4588,.13143686E-3,.781E-5,0
KUIPER-00109,2025-171R,2026-06-05T14:29:40.114464,14.79930226,.00005743,51.9013,126.8111,83.2427,276.8601,0,U,65147,999,4594,.35681359E-3,.25E-4,0
KUIPER-00110,2025-171S,2026-06-05T05:15:27.383616,14.79936815,.0000586,51.8990,141.0788,100.0475,260.0553,0,U,65148,999,4570,.26834E-3,.1825E-4,0
KUIPER-00111,2025-171T,2026-06-05T15:39:41.663520,14.79951469,.00000976,51.8946,144.0476,5.6221,354.4742,0,U,65149,999,4570,.53407662E-4,.186E-5,0
KUIPER-00112,2025-171U,2026-06-05T05:34:28.426944,14.79066901,.0001117,51.9003,128.5038,68.8914,291.2167,0,U,65150,999,4588,.45875E-2,.34216E-3,0
KUIPER-00114,2025-171V,2026-06-05T05:52:25.495392,14.79930005,.000045,51.8986,148.4294,72.3562,287.7449,0,U,65151,999,4560,.63648E-5,-.173E-5,0
KUIPER-00115,2025-171W,2026-06-05T15:47:27.979008,14.79933593,.0000776,51.8962,139.0939,58.0216,302.0822,0,U,65152,999,4577,.17306456E-4,-.89E-6,0
KUIPER-00116,2025-171X,2026-06-04T04:49:03.155808,14.79930664,.00007609,51.8986,150.5785,27.9362,332.1641,0,U,65153,999,4548,.14637653E-3,.895E-5,0
KUIPER-00118,2025-171Y,2026-06-05T16:24:29.547648,14.79932745,.00005514,51.8974,146.4748,89.6387,270.4638,0,U,65154,999,4567,.38864523E-3,.2743E-4,0
KUIPER-00119,2025-171Z,2026-06-05T15:06:39.890304,14.79941740,.00008684,51.9005,134.3006,99.4577,260.6484,0,U,65155,999,4583,-.11445213E-3,-.1094E-4,0
METOP-SGA1,2025-172A,2026-06-05T02:27:34.473312,14.21507730,.0000977,98.6647,216.0502,86.3817,273.7472,0,U,65159,999,4207,.44615E-4,.54E-6,0
HULIANWANG DIGUI-58,2025-174A,2026-06-05T22:25:09.696864,13.24405096,.0001841,86.4966,255.8057,95.1569,264.9775,0,U,65164,999,3930,.10838E-3,.61E-6,0
HULIANWANG DIGUI-59,2025-174B,2026-06-05T22:36:05.965344,13.24405202,.0001833,86.4927,255.6979,98.7833,261.3508,0,U,65165,999,3930,.94239E-4,.55E-6,0
HULIANWANG DIGUI-60,2025-174C,2026-06-05T22:46:55.907616,13.24404768,.0001776,86.4959,255.7932,95.3460,264.7877,0,U,65166,999,3930,.77667E-4,.48E-6,0
HULIANWANG DIGUI-61,2025-174D,2026-06-05T21:09:04.483296,13.24405327,.0001905,86.4967,255.8463,91.4055,268.7297,0,U,65167,999,3929,.69608E-4,.45E-6,0
HULIANWANG DIGUI-62,2025-174E,2026-06-05T21:19:51.081888,13.24406781,.0001751,86.4909,255.6809,91.6483,268.4851,0,U,65168,999,3929,.95847E-4,.56E-6,0
HULIANWANG DIGUI-63,2025-174F,2026-06-05T21:30:22.716864,13.24401121,.0001819,86.4961,255.8346,88.8867,271.2476,0,U,65169,999,3929,.10676E-3,.6E-6,0
HULIANWANG DIGUI-64,2025-174G,2026-06-05T21:41:39.689376,13.24405127,.0001738,86.4920,255.7208,93.5234,266.6099,0,U,65170,999,3929,.15732E-3,.82E-6,0
HULIANWANG DIGUI-65,2025-174H,2026-06-05T22:03:20.952864,13.24405164,.0001918,86.4884,255.6226,92.7940,267.3413,0,U,65171,999,3929,.14103E-3,.75E-6,0
HULIANWANG DIGUI-66,2025-174J,2026-06-05T21:52:30.919008,13.24404860,.0001777,86.4919,255.7227,95.2720,264.8617,0,U,65172,999,3929,.16283E-3,.85E-6,0
HULIANWANG DIGUI-67,2025-174K,2026-06-05T22:14:17.364768,13.24406359,.0001846,86.4931,255.7616,95.1603,264.9742,0,U,65173,999,3926,.13994E-3,.75E-6,0
STARLINK-34956,2025-175A,2026-06-05T09:39:08.622432,15.05657717,.00011823,97.4039,28.3966,80.9881,279.1480,0,U,65174,999,4580,.22918277E-3,.3251E-4,0
STARLINK-34949,2025-175B,2026-06-05T09:35:10.658688,15.05653675,.00047185,97.4077,28.3995,76.9881,283.1873,0,U,65175,999,4584,.3528723E-3,.5038E-4,0
STARLINK-34707,2025-175C,2026-06-05T09:31:08.883840,15.05683453,.00017962,97.4061,28.3984,97.8825,262.2607,0,U,65176,999,4583,.68929346E-3,.991E-4,0
STARLINK-34967,2025-175D,2026-06-05T00:00:02.000160,15.05612914,.00019283,97.4014,28.0281,92.1485,294.5127,0,U,65177,999,575,.55320036E-2,.8059E-3,0
STARLINK-34929,2025-175E,2026-06-05T09:23:12.195168,15.05654749,.00004062,97.4073,28.4110,74.1073,286.0199,0,U,65178,999,4583,.31190117E-3,.4446E-4,0
STARLINK-34932,2025-175F,2026-06-05T12:26:37.294944,15.05663230,.00011738,97.4053,28.5514,73.9076,286.2281,0,U,65179,999,4585,.47549617E-3,.6812E-4,0
STARLINK-34862,2025-175G,2026-06-05T12:22:38.022240,15.05669048,.00016432,97.4054,28.5536,80.9434,279.1979,0,U,65180,999,4585,.51517762E-3,.7387E-4,0
STARLINK-34942,2025-175H,2026-06-05T12:30:36.698976,15.05662487,.0002202,97.4026,28.5463,69.9265,290.2199,0,U,65181,999,4582,.24720553E-3,.3512E-4,0
STARLINK-34944,2025-175J,2026-06-05T12:18:39.002688,15.05667498,.00019489,97.4023,28.5563,76.8365,283.3080,0,U,65182,999,4585,.47354172E-3,.6784E-4,0
STARLINK-34939,2025-175K,2026-06-05T09:03:16.096896,15.05658502,.00027163,97.4055,28.4275,79.0988,281.0545,0,U,65183,999,4580,.19480986E-3,.2755E-4,0
STARLINK-34947,2025-175L,2026-06-05T08:59:16.782720,15.05658158,.00023132,97.4053,28.4321,85.1070,275.0421,0,U,65184,999,4583,.24298858E-3,.3451E-4,0
STARLINK-34945,2025-175M,2026-06-05T08:55:17.621472,15.05657688,.00025139,97.4054,28.4359,87.6963,272.4553,0,U,65185,999,4583,.21826955E-3,.3093E-4,0
STARLINK-34965,2025-175N,2026-06-05T08:47:19.356000,15.05655703,.00031824,97.4053,28.4441,85.3881,274.7710,0,U,65186,999,4583,.19306252E-3,.2729E-4,0
STARLINK-34915,2025-175P,2026-06-05T08:51:18.521568,15.05664972,.00031714,97.4053,28.4405,88.3717,271.7873,0,U,65187,999,4583,.16776329E-3,.2364E-4,0
